{"type": "FeatureCollection", "features": [ {"type": "Feature", "properties": {"norad_id": 44542, "name": "BEIDOU-3 M24 (C46)", "group": "beidou", "lat": 15.969185928324688, "lon": -2.9712814151845186, "alt_km": 21545.39665064063, "timestamp": "2025-12-17T10:52:54.618722+00:00", "meta": {"OBJECT_NAME": "BEIDOU-3 M24 (C46)", "OBJECT_ID": "2019-061A", "EPOCH": "2025-12-16T03:22:44.327712", "MEAN_MOTION": 1.86229353, "ECCENTRICITY": 0.00096014, "INCLINATION": 54.4001, "RA_OF_ASC_NODE": 188.9011, "ARG_OF_PERICENTER": 24.8001, "MEAN_ANOMALY": 335.316, "EPHEMERIS_TYPE": 0, "CLASSIFICATION_TYPE": "U", "NORAD_CAT_ID": 44542, "ELEMENT_SET_NO": 999, "REV_AT_EPOCH": 4238, "BSTAR": 0, "MEAN_MOTION_DOT": 1.15e-06, "MEAN_MOTION_DDOT": 0}, "tle": {"line1": "1 44542U 19061A   25350.14079083  .00000115  00000+0  00000+0 0  9998", "line2": "2 44542  54.4001 188.9011 0009601  24.8001 335.3160  1.86229353 42381"}}, "geometry": {"type": "Point", "coordinates": [-2.9712814151845186, 15.969185928324688]}}, {"type": "Feature", "properties": {"norad_id": 44543, "name": "BEIDOU-3 M23 (C45)", "group": "beidou", "lat": 50.9723829650756, "lon": -109.01394672731867, "alt_km": 21511.038911357475, "timestamp": "2025-12-17T10:52:54.618733+00:00", "meta": {"OBJECT_NAME": "BEIDOU-3 M23 (C45)", "OBJECT_ID": "2019-061B", "EPOCH": "2025-12-16T19:20:04.225344", "MEAN_MOTION": 1.86227685, "ECCENTRICITY": 0.00060954, "INCLINATION": 54.399, "RA_OF_ASC_NODE": 188.847, "ARG_OF_PERICENTER": 24.4715, "MEAN_ANOMALY": 334.1063, "EPHEMERIS_TYPE": 0, "CLASSIFICATION_TYPE": "U", "NORAD_CAT_ID": 44543, "ELEMENT_SET_NO": 999, "REV_AT_EPOCH": 4239, "BSTAR": 0, "MEAN_MOTION_DOT": 1.15e-06, "MEAN_MOTION_DDOT": 0}, "tle": {"line1": "1 44543U 19061B   25350.80560446  .00000115  00000+0  00000+0 0  9990", "line2": "2 44543  54.3990 188.8470 0006095  24.4715 334.1063  1.86227685 42394"}}, "geometry": {"type": "Point", "coordinates": [-109.01394672731867, 50.9723829650756]}}, {"type": "Feature", "properties": {"norad_id": 44709, "name": "BEIDOU-3 IGSO-3 (C40)", "group": "beidou", "lat": 53.662453708694905, "lon": -6.027146888908666, "alt_km": 35860.66900955399, "timestamp": "2025-12-17T10:52:54.618745+00:00", "meta": {"OBJECT_NAME": "BEIDOU-3 IGSO-3 (C40)", "OBJECT_ID": "2019-073A", "EPOCH": "2025-11-20T07:11:22.740000", "MEAN_MOTION": 1.00250097, "ECCENTRICITY": 0.0044538, "INCLINATION": 55.163, "RA_OF_ASC_NODE": 283.159, "ARG_OF_PERICENTER": 191.5856, "MEAN_ANOMALY": 168.2409, "EPHEMERIS_TYPE": 0, "CLASSIFICATION_TYPE": "U", "NORAD_CAT_ID": 44709, "ELEMENT_SET_NO": 999, "REV_AT_EPOCH": 2236, "BSTAR": 0, "MEAN_MOTION_DOT": -2.06e-06, "MEAN_MOTION_DDOT": 0}, "tle": {"line1": "1 44709U 19073A   25324.29956875 -.00000206  00000+0  00000+0 0  9998", "line2": "2 44709  55.1630 283.1590 0044538 191.5856 168.2409  1.00250097 22360"}}, "geometry": {"type": "Point", "coordinates": [-6.027146888908666, 53.662453708694905]}}, {"type": "Feature", "properties": {"norad_id": 44793, "name": "BEIDOU-3 M22 (C44)", "group": "beidou", "lat": -54.02141327971024, "lon": -148.38246350400658, "alt_km": 21540.894303120374, "timestamp": "2025-12-17T10:52:54.618761+00:00", "meta": {"OBJECT_NAME": "BEIDOU-3 M22 (C44)", "OBJECT_ID": "2019-078A", "EPOCH": "2025-12-15T23:32:20.992992", "MEAN_MOTION": 1.86231869, "ECCENTRICITY": 0.00058075, "INCLINATION": 54.1051, "RA_OF_ASC_NODE": 306.2718, "ARG_OF_PERICENTER": 23.5551, "MEAN_ANOMALY": 336.4582, "EPHEMERIS_TYPE": 0, "CLASSIFICATION_TYPE": "U", "NORAD_CAT_ID": 44793, "ELEMENT_SET_NO": 999, "REV_AT_EPOCH": 4123, "BSTAR": 0, "MEAN_MOTION_DOT": -9.7e-07, "MEAN_MOTION_DDOT": 0}, "tle": {"line1": "1 44793U 19078A   25349.98079853 -.00000097  00000+0  00000+0 0  9999", "line2": "2 44793  54.1051 306.2718 0005807  23.5551 336.4582  1.86231869 41238"}}, "geometry": {"type": "Point", "coordinates": [-148.38246350400658, -54.02141327971024]}}, {"type": "Feature", "properties": {"norad_id": 44794, "name": "BEIDOU-3 M21 (C43)", "group": "beidou", "lat": 4.035546874818757, "lon": 123.23224544384253, "alt_km": 21538.826219318664, "timestamp": "2025-12-17T10:52:54.618772+00:00", "meta": {"OBJECT_NAME": "BEIDOU-3 M21 (C43)", "OBJECT_ID": "2019-078B", "EPOCH": "2025-12-15T13:57:29.064096", "MEAN_MOTION": 1.86227547, "ECCENTRICITY": 0.00039999, "INCLINATION": 54.0788, "RA_OF_ASC_NODE": 306.2509, "ARG_OF_PERICENTER": 11.1298, "MEAN_ANOMALY": 348.8661, "EPHEMERIS_TYPE": 0, "CLASSIFICATION_TYPE": "U", "NORAD_CAT_ID": 44794, "ELEMENT_SET_NO": 999, "REV_AT_EPOCH": 4123, "BSTAR": 0, "MEAN_MOTION_DOT": -9.9e-07, "MEAN_MOTION_DDOT": 0}, "tle": {"line1": "1 44794U 19078B   25349.58158639 -.00000099  00000+0  00000+0 0  9998", "line2": "2 44794  54.0788 306.2509 0003999  11.1298 348.8661  1.86227547 41237"}}, "geometry": {"type": "Point", "coordinates": [123.23224544384253, 4.035546874818757]}}, {"type": "Feature", "properties": {"norad_id": 44864, "name": "BEIDOU-3 M19 (C41)", "group": "beidou", "lat": 9.086280157774016, "lon": 74.91070126373492, "alt_km": 21523.17147918257, "timestamp": "2025-12-17T10:52:54.618783+00:00", "meta": {"OBJECT_NAME": "BEIDOU-3 M19 (C41)", "OBJECT_ID": "2019-090A", "EPOCH": "2025-12-14T04:04:53.318784", "MEAN_MOTION": 1.86231555, "ECCENTRICITY": 0.00179181, "INCLINATION": 56.3949, "RA_OF_ASC_NODE": 68.9134, "ARG_OF_PERICENTER": 285.3736, "MEAN_ANOMALY": 44.0547, "EPHEMERIS_TYPE": 0, "CLASSIFICATION_TYPE": "U", "NORAD_CAT_ID": 44864, "ELEMENT_SET_NO": 999, "REV_AT_EPOCH": 4078, "BSTAR": 0, "MEAN_MOTION_DOT": -8.2e-07, "MEAN_MOTION_DDOT": 0}, "tle": {"line1": "1 44864U 19090A   25348.17006156 -.00000082  00000+0  00000+0 0  9992", "line2": "2 44864  56.3949  68.9134 0017918 285.3736  44.0547  1.86231555 40784"}}, "geometry": {"type": "Point", "coordinates": [74.91070126373492, 9.086280157774016]}}, {"type": "Feature", "properties": {"norad_id": 44865, "name": "BEIDOU-3 M20 (C42)", "group": "beidou", "lat": 55.025665937316376, "lon": 177.23836947242805, "alt_km": 21561.842601164557, "timestamp": "2025-12-17T10:52:54.618794+00:00", "meta": {"OBJECT_NAME": "BEIDOU-3 M20 (C42)", "OBJECT_ID": "2019-090B", "EPOCH": "2025-12-14T14:16:43.218624", "MEAN_MOTION": 1.86231589, "ECCENTRICITY": 0.00151163, "INCLINATION": 56.3967, "RA_OF_ASC_NODE": 68.9336, "ARG_OF_PERICENTER": 297.6834, "MEAN_ANOMALY": 46.2212, "EPHEMERIS_TYPE": 0, "CLASSIFICATION_TYPE": "U", "NORAD_CAT_ID": 44865, "ELEMENT_SET_NO": 999, "REV_AT_EPOCH": 4077, "BSTAR": 0, "MEAN_MOTION_DOT": -8.3e-07, "MEAN_MOTION_DDOT": 0}, "tle": {"line1": "1 44865U 19090B   25348.59494466 -.00000083  00000+0  00000+0 0  9995", "line2": "2 44865  56.3967  68.9336 0015116 297.6834  46.2212  1.86231589 40771"}}, "geometry": {"type": "Point", "coordinates": [177.23836947242805, 55.025665937316376]}}, {"type": "Feature", "properties": {"norad_id": 45344, "name": "BEIDOU-3 G2 (C60)", "group": "beidou", "lat": -2.419346585211331, "lon": -30.37063231458107, "alt_km": 35768.27386463782, "timestamp": "2025-12-17T10:52:54.618805+00:00", "meta": {"OBJECT_NAME": "BEIDOU-3 G2 (C60)", "OBJECT_ID": "2020-017A", "EPOCH": "2025-12-16T20:35:05.205696", "MEAN_MOTION": 1.00273145, "ECCENTRICITY": 0.00043557, "INCLINATION": 2.5049, "RA_OF_ASC_NODE": 43.9477, "ARG_OF_PERICENTER": 271.641, "MEAN_ANOMALY": 158.9771, "EPHEMERIS_TYPE": 0, "CLASSIFICATION_TYPE": "U", "NORAD_CAT_ID": 45344, "ELEMENT_SET_NO": 999, "REV_AT_EPOCH": 2143, "BSTAR": 0, "MEAN_MOTION_DOT": -1.19e-06, "MEAN_MOTION_DDOT": 0}, "tle": {"line1": "1 45344U 20017A   25350.85769914 -.00000119  00000+0  00000+0 0  9994", "line2": "2 45344   2.5049  43.9477 0004355 271.6410 158.9771  1.00273145 21435"}}, "geometry": {"type": "Point", "coordinates": [-30.37063231458107, -2.419346585211331]}}, {"type": "Feature", "properties": {"norad_id": 45807, "name": "BEIDOU-3 G3 (C61)", "group": "beidou", "lat": -1.8298360854792517, "lon": 0.12286690164142373, "alt_km": 35760.4621744696, "timestamp": "2025-12-17T10:52:54.618817+00:00", "meta": {"OBJECT_NAME": "BEIDOU-3 G3 (C61)", "OBJECT_ID": "2020-040A", "EPOCH": "2025-12-16T21:10:01.572096", "MEAN_MOTION": 1.00272252, "ECCENTRICITY": 0.00063755, "INCLINATION": 2.0011, "RA_OF_ASC_NODE": 66.6197, "ARG_OF_PERICENTER": 308.7522, "MEAN_ANOMALY": 138.4817, "EPHEMERIS_TYPE": 0, "CLASSIFICATION_TYPE": "U", "NORAD_CAT_ID": 45807, "ELEMENT_SET_NO": 999, "REV_AT_EPOCH": 2024, "BSTAR": 0, "MEAN_MOTION_DOT": -3.31e-06, "MEAN_MOTION_DDOT": 0}, "tle": {"line1": "1 45807U 20040A   25350.88196264 -.00000331  00000+0  00000+0 0  9995", "line2": "2 45807   2.0011  66.6197 0006375 308.7522 138.4817  1.00272252 20244"}}, "geometry": {"type": "Point", "coordinates": [0.12286690164142373, -1.8298360854792517]}}, {"type": "Feature", "properties": {"norad_id": 56564, "name": "BEIDOU-3 G4 (C62)", "group": "beidou", "lat": 0.7924607689272988, "lon": 49.580077514914, "alt_km": 35791.9511584474, "timestamp": "2025-12-17T10:52:54.618829+00:00", "meta": {"OBJECT_NAME": "BEIDOU-3 G4 (C62)", "OBJECT_ID": "2023-066A", "EPOCH": "2025-12-16T19:15:19.678176", "MEAN_MOTION": 1.00271768, "ECCENTRICITY": 0.00027882, "INCLINATION": 0.8061, "RA_OF_ASC_NODE": 302.3763, "ARG_OF_PERICENTER": 227.8165, "MEAN_ANOMALY": 4.39, "EPHEMERIS_TYPE": 0, "CLASSIFICATION_TYPE": "U", "NORAD_CAT_ID": 56564, "ELEMENT_SET_NO": 999, "REV_AT_EPOCH": 956, "BSTAR": 0, "MEAN_MOTION_DOT": -8.6e-07, "MEAN_MOTION_DDOT": 0}, "tle": {"line1": "1 56564U 23066A   25350.80231109 -.00000086  00000+0  00000+0 0  9995", "line2": "2 56564   0.8061 302.3763 0002788 227.8165   4.3900  1.00271768  9561"}}, "geometry": {"type": "Point", "coordinates": [49.580077514914, 0.7924607689272988]}}]}